OBJECT_NAME,OBJECT_ID,EPOCH,MEAN_MOTION,ECCENTRICITY,INCLINATION,RA_OF_ASC_NODE,ARG_OF_PERICENTER,MEAN_ANOMALY,EPHEMERIS_TYPE,CLASSIFICATION_TYPE,NORAD_CAT_ID,ELEMENT_SET_NO,REV_AT_EPOCH,BSTAR,MEAN_MOTION_DOT,MEAN_MOTION_DDOT
ONEWEB-0130,2020-100U,2026-06-16T04:46:15.570912,13.12443081,.00017461,87.8948,350.8487,93.6990,266.4339,0,U,47276,999,26451,.99246688E-3,.37E-5,0
ONEWEB-0131,2020-100V,2026-06-16T01:01:49.757664,13.12435091,.00016658,87.8933,350.8980,90.5217,269.6103,0,U,47277,999,26453,-.12871876E-2,-.45E-5,0
ONEWEB-0132,2020-100W,2026-06-16T05:22:50.359872,13.12444092,.0001724,87.8939,350.8636,90.1622,269.9704,0,U,47278,999,26445,-.1060003E-2,-.369E-5,0
ONEWEB-0133,2020-100X,2026-06-16T05:47:01.572288,13.12443756,.0001676,87.8952,350.8364,89.6319,270.5002,0,U,47279,999,26461,-.11559656E-2,-.403E-5,0
ONEWEB-0134,2020-100Y,2026-06-16T05:03:19.581120,13.12440960,.00016368,87.8951,350.8394,98.0685,262.0629,0,U,47280,999,26458,-.1406991E-3,-.38E-6,0
ONEWEB-0135,2020-100Z,2026-06-16T06:11:37.822560,13.12445169,.00015386,87.8937,350.8531,96.2954,263.8349,0,U,47281,999,26461,.70962258E-3,.268E-5,0
ONEWEB-0136,2020-100AA,2026-06-16T06:38:28.154400,13.12443025,.00016136,87.8946,350.8306,99.6549,260.4762,0,U,47282,999,26454,.89510375E-3,.335E-5,0
ONEWEB-0137,2020-100AB,2026-06-16T05:37:28.103520,13.12442623,.0001962,87.8951,350.8490,89.0739,271.0614,0,U,47283,999,26444,-.16978719E-2,-.598E-5,0
ONEWEB-0138,2020-100AC,2026-06-16T01:26:12.297120,13.12442405,.00017011,87.8947,350.8892,97.5025,262.6297,0,U,47284,999,26450,-.38164623E-3,-.125E-5,0
ONEWEB-0139,2020-100AD,2026-06-16T06:04:30.480384,13.12445404,.00018037,87.8947,350.8373,92.5328,267.6007,0,U,47285,999,26460,.44017451E-3,.171E-5,0
ONEWEB-0140,2020-100AE,2026-06-16T04:58:26.834592,13.12442883,.00016587,87.8948,350.8370,87.4719,272.6599,0,U,47286,999,26456,.24905401E-3,.102E-5,0
ONEWEB-0141,2020-100AF,2026-06-16T06:04:06.532896,13.12446070,.00021247,87.8947,350.8332,90.0180,270.1192,0,U,47287,999,26455,.43302179E-3,.169E-5,0
ONEWEB-0142,2020-100AG,2026-06-16T05:47:27.655584,13.12443537,.00021651,87.8942,350.8570,98.4256,261.7118,0,U,47288,999,26454,-.80991712E-3,-.279E-5,0
ONEWEB-0143,2020-100AH,2026-06-16T06:01:52.293216,13.12445188,.00018349,87.8947,350.8538,90.5791,269.5548,0,U,47289,999,26452,.12019899E-3,.56E-6,0
ONEWEB-0144,2020-100AJ,2026-06-16T07:10:11.443584,13.12452535,.00017766,87.8951,350.8181,98.5604,261.5726,0,U,47290,999,26445,-.57050335E-2,-.204E-4,0
ONEWEB-0145,2020-100AK,2026-06-16T06:28:42.938688,13.12444186,.00018389,87.8939,350.8518,93.5288,266.6051,0,U,47291,999,26464,.12616225E-2,.467E-5,0
ONEWEB-0146,2020-100AL,2026-06-16T06:23:50.532576,13.12443962,.00017071,87.8946,350.8441,80.9103,279.2218,0,U,47292,999,26455,.96623078E-3,.36E-5,0
ONEWEB-0147,2020-100AM,2026-06-16T05:35:01.703040,13.12442810,.00016773,87.8948,350.8325,92.1263,268.0058,0,U,47293,999,26444,-.16445398E-2,-.579E-5,0
ONEWEB-0115,2021-025A,2026-06-16T04:26:59.871552,13.13469412,.00017781,87.8956,320.4226,94.6700,265.4632,0,U,48042,999,25346,.75164643E-3,.287E-5,0
ONEWEB-0152,2021-025B,2026-06-16T02:56:47.645088,13.13469474,.00017297,87.8961,320.4317,92.8533,267.2794,0,U,48043,999,25341,.15262213E-3,.68E-6,0
ONEWEB-0153,2021-025C,2026-06-16T04:14:47.870016,13.13470982,.00018745,87.8952,320.4242,98.4289,261.7052,0,U,48044,999,25341,.8720285E-3,.331E-5,0
ONEWEB-0154,2021-025D,2026-06-16T04:09:55.492416,13.13470240,.00017447,87.8957,320.4223,98.2007,261.9320,0,U,48045,999,25337,.58379655E-3,.226E-5,0
ONEWEB-0116,2021-025E,2026-06-16T03:16:16.754592,13.13468235,.00017113,87.8960,320.4261,93.1064,267.0261,0,U,48046,999,25351,-.70413562E-3,-.244E-5,0
ONEWEB-0150,2021-025F,2026-06-15T23:02:46.837248,13.13469415,.00020118,87.8961,320.4587,94.4137,265.7222,0,U,48047,999,25338,.61926368E-3,.239E-5,0
ONEWEB-0107,2021-025G,2026-06-16T04:34:18.331680,13.13469498,.000199,87.8962,320.4089,102.6037,257.5315,0,U,48048,999,25339,.67079476E-3,.258E-5,0
ONEWEB-0101,2021-025H,2026-06-16T05:30:21.404160,13.13471091,.00017891,87.8950,320.4168,101.7712,258.3618,0,U,48049,999,25337,-.60306121E-3,-.207E-5,0
ONEWEB-0113,2021-025J,2026-06-16T04:16:13.088928,13.13894013,.00018374,87.8956,320.3376,93.4826,266.6514,0,U,48050,999,25347,.61635816E-3,.239E-5,0
ONEWEB-0112,2021-025K,2026-06-16T02:51:55.208736,13.13469463,.00017795,87.8962,320.4210,104.3843,255.7483,0,U,48051,999,25345,.31244157E-3,.127E-5,0
ONEWEB-0156,2021-025L,2026-06-16T03:04:06.034368,13.13469804,.0001956,87.8961,320.4293,97.8709,262.2642,0,U,48052,999,25343,-.20930897E-3,-.64E-6,0
ONEWEB-0161,2021-025M,2026-06-16T04:17:14.102880,13.13470668,.00019734,87.8960,320.4207,99.5761,260.5591,0,U,48053,999,25337,.7786911E-3,.297E-5,0
