ONEWEB-0130             
1 47276U 20100U   26167.19879133  .00000370  00000+0  99247-3 0  9995
2 47276  87.8948 350.8487 0001746  93.6990 266.4339 13.12443081264519
ONEWEB-0131             
1 47277U 20100V   26167.04293701 -.00000450  00000+0 -12872-2 0  9990
2 47277  87.8933 350.8980 0001665  90.5217 269.6103 13.12435091264538
ONEWEB-0132             
1 47278U 20100W   26167.22419398 -.00000369  00000+0 -10600-2 0  9999
2 47278  87.8939 350.8636 0001724  90.1622 269.9704 13.12444092264457
ONEWEB-0133             
1 47279U 20100X   26167.24099042 -.00000403  00000+0 -11560-2 0  9997
2 47279  87.8952 350.8364 0001676  89.6319 270.5002 13.12443756264616
ONEWEB-0134             
1 47280U 20100Y   26167.21064330 -.00000038  00000+0 -14070-3 0  9992
2 47280  87.8951 350.8394 0001636  98.0685 262.0629 13.12440960264587
ONEWEB-0135             
1 47281U 20100Z   26167.25807665  .00000268  00000+0  70962-3 0  9998
2 47281  87.8937 350.8531 0001538  96.2954 263.8349 13.12445169264613
ONEWEB-0136             
1 47282U 20100AA  26167.27671475  .00000335  00000+0  89510-3 0  9993
2 47282  87.8946 350.8306 0001613  99.6549 260.4762 13.12443025264548
ONEWEB-0137             
1 47283U 20100AB  26167.23435305 -.00000598  00000+0 -16979-2 0  9991
2 47283  87.8951 350.8490 0001962  89.0739 271.0614 13.12442623264446
ONEWEB-0138             
1 47284U 20100AC  26167.05986455 -.00000125  00000+0 -38165-3 0  9997
2 47284  87.8947 350.8892 0001701  97.5025 262.6297 13.12442405264509
ONEWEB-0139             
1 47285U 20100AD  26167.25313056  .00000171  00000+0  44017-3 0  9993
2 47285  87.8947 350.8373 0001803  92.5328 267.6007 13.12445404264605
ONEWEB-0140             
1 47286U 20100AE  26167.20725503  .00000102  00000+0  24905-3 0  9991
2 47286  87.8948 350.8370 0001658  87.4719 272.6599 13.12442883264564
ONEWEB-0141             
1 47287U 20100AF  26167.25285339  .00000169  00000+0  43302-3 0  9990
2 47287  87.8947 350.8332 0002124  90.0180 270.1192 13.12446070264556
ONEWEB-0142             
1 47288U 20100AG  26167.24129231 -.00000279  00000+0 -80992-3 0  9998
2 47288  87.8942 350.8570 0002165  98.4256 261.7118 13.12443537264545
ONEWEB-0143             
1 47289U 20100AH  26167.25129969  .00000056  00000+0  12020-3 0  9996
2 47289  87.8947 350.8538 0001834  90.5791 269.5548 13.12445188264529
ONEWEB-0144             
1 47290U 20100AJ  26167.29874356 -.00002040  00000+0 -57050-2 0  9997
2 47290  87.8951 350.8181 0001776  98.5604 261.5726 13.12452535264452
ONEWEB-0145             
1 47291U 20100AK  26167.26994142  .00000467  00000+0  12616-2 0  9999
2 47291  87.8939 350.8518 0001838  93.5288 266.6051 13.12444186264646
ONEWEB-0146             
1 47292U 20100AL  26167.26655709  .00000360  00000+0  96623-3 0  9996
2 47292  87.8946 350.8441 0001707  80.9103 279.2218 13.12443962264557
ONEWEB-0147             
1 47293U 20100AM  26167.23265860 -.00000579  00000+0 -16445-2 0  9996
2 47293  87.8948 350.8325 0001677  92.1263 268.0058 13.12442810264446
ONEWEB-0115             
1 48042U 21025A   26167.18541518  .00000287  00000+0  75165-3 0  9996
2 48042  87.8956 320.4226 0001778  94.6700 265.4632 13.13469412253463
ONEWEB-0152             
1 48043U 21025B   26167.12277367  .00000068  00000+0  15262-3 0  9998
2 48043  87.8961 320.4317 0001729  92.8533 267.2794 13.13469474253413
ONEWEB-0153             
1 48044U 21025C   26167.17694294  .00000331  00000+0  87203-3 0  9993
2 48044  87.8952 320.4242 0001874  98.4289 261.7052 13.13470982253414
ONEWEB-0154             
1 48045U 21025D   26167.17355894  .00000226  00000+0  58380-3 0  9991
2 48045  87.8957 320.4223 0001744  98.2007 261.9320 13.13470240253373
ONEWEB-0116             
1 48046U 21025E   26167.13630503 -.00000244  00000+0 -70414-3 0  9995
2 48046  87.8960 320.4261 0001711  93.1064 267.0261 13.13468235253519
ONEWEB-0150             
1 48047U 21025F   26166.96026432  .00000239  00000+0  61926-3 0  9996
2 48047  87.8961 320.4587 0002011  94.4137 265.7222 13.13469415253389
ONEWEB-0107             
1 48048U 21025G   26167.19048995  .00000258  00000+0  67079-3 0  9997
2 48048  87.8962 320.4089 0001990 102.6037 257.5315 13.13469498253398
ONEWEB-0101             
1 48049U 21025H   26167.22941440 -.00000207  00000+0 -60306-3 0  9991
2 48049  87.8950 320.4168 0001789 101.7712 258.3618 13.13471091253375
ONEWEB-0113             
1 48050U 21025J   26167.17792927  .00000239  00000+0  61636-3 0  9991
2 48050  87.8956 320.3376 0001837  93.4826 266.6514 13.13894013253471
ONEWEB-0112             
1 48051U 21025K   26167.11938899  .00000127  00000+0  31244-3 0  9994
2 48051  87.8962 320.4210 0001779 104.3843 255.7483 13.13469463253452
ONEWEB-0156             
1 48052U 21025L   26167.12784762 -.00000064  00000+0 -20931-3 0  9997
2 48052  87.8961 320.4293 0001956  97.8709 262.2642 13.13469804253434
ONEWEB-0161             
1 48053U 21025M   26167.17863545  .00000297  00000+0  77869-3 0  9998
2 48053  87.8960 320.4207 0001973  99.5761 260.5591 13.13470668253372
